DONGPO 02               
1 53452U 22098J   26130.53432355  .00054550  00000+0  48880-3 0  9991
2 53452  97.5469 258.6872 0002646 128.4173 231.7325 15.68164557208880
DONGPO 01               
1 53453U 22098K   26130.54501231  .00051034  00000+0  48720-3 0  9990
2 53453  97.5532 259.3012 0000872 149.4330 210.6981 15.66610398208851
STARLINK-4400           
1 53468U 22099D   26130.29714812 -.00000888  00000+0 -57421-4 0  9992
2 53468  97.5128 250.7271 0000794  16.9219 343.2034 15.05653023205244
STARLINK-4621           
1 53676U 22105AE  26130.23346420 -.00002570  00000+0 -17402-3 0  9995
2 53676  97.5130  10.6717 0003149  61.3017 298.8526 15.05657674202494
SHERPA-LTC2             
1 53754U 22107BG  26130.09750668  .00004427  00000+0  23070-3 0  9990
2 53754  53.2345  21.5215 0397896 119.6245 244.4984 14.69157046196941
CENTISPACE-1 S3         
1 53757U 22108A   26130.51877830  .00000217  00000+0  81817-4 0  9999
2 53757  53.5324 211.0161 0008304 239.4045 120.6112 14.61217603196027
CENTISPACE-1 S4         
1 53758U 22108B   26130.52050086  .00000332  00000+0  10349-3 0  9996
2 53758  53.5299 208.7041 0008100 225.0740 134.9579 14.61890028196052
BLUEWALKER-3            
1 53807U 22111AL  26130.49007554  .00003778  00000+0  11053-3 0  9993
2 53807  53.2285 210.8807 0007320  64.2299 295.9461 15.37820008204400
YUNHAI-1 03             
1 53877U 22115A   26130.54473279  .00000254  00000+0  10960-3 0  9993
2 53877  98.5538 129.1712 0005328 145.2992 214.8540 14.32691643190129
CENTISPACE-1 S5         
1 54020U 22126A   26130.50509451  .00000546  00000+0  14254-3 0  9998
2 54020  55.0004   3.7437 0012119 356.7972   3.2943 14.62944841191526
CENTISPACE-1 S6         
1 54021U 22126B   26130.47980711  .00000443  00000+0  12432-3 0  9999
2 54021  55.0007   5.5370 0013951 355.6529   4.4342 14.62235457191484
OTB-3-GAZELLE           
1 54023U 22127A   26130.46863549  .00000101  00000+0  43285-4 0  9992
2 54023  98.3940 122.7498 0012087 306.1220  53.8850 14.42660610188921
ASO-S                   
1 54029U 22129A   26130.49187188  .00000118  00000+0  40252-4 0  9990
2 54029  98.2758 136.1118 0013710 203.5446 156.5123 14.52043063189951
HJ-2E                   
1 54035U 22132A   26130.54753407  .00004907  00000+0  21814-3 0  9992
2 54035  97.3812 135.6198 0022116 137.6984 222.5963 15.21751827198693
COSMOS 2561             
1 54109U 22137A   26130.48859325  .00008697  00000+0  15235-3 0  9998
2 54109  96.9224 190.9169 0010805 155.6342 204.5424 15.50747657200503
GONETS-M 23             
1 54150U 22139A   26130.50971824  .00000015  00000+0  35997-4 0  9992
2 54150  82.5101  11.7104 0020858 306.1733  53.7417 12.42889093160969
GONETS-M 24             
1 54151U 22139B   26130.48284451  .00000027  00000+0  12276-3 0  9990
2 54151  82.5000  10.8128 0016256 317.7193  42.2632 12.42889692160966
GONETS-M 25             
1 54152U 22139C   26130.46919294  .00000011  00000+0  10222-4 0  9992
2 54152  82.5078  11.4872 0020142 315.5090  44.4372 12.42888960160968
SKIF-D                  
1 54153U 22139D   26129.28440799  .00000040  00000+0  00000+0 0  9990
2 54153  89.9558  96.6795 0007373 214.5123 145.4786  5.00439038 62166
MATS                    
1 54227U 22147A   26130.48959332  .00003015  00000+0  21597-3 0  9996
2 54227  97.6826 132.2570 0011758 334.1171  25.9466 15.05117789192099
JILIN-1 GAOFEN 03D54    
1 54254U 22155D   26130.36153167  .00103033  00000+0  49696-3 0  9995
2 54254  97.6085 278.9953 0002312 169.0530 191.0789 15.82308294194294
EOS-6 (OCEANSAT-3)      
1 54361U 22158A   26130.54573642  .00000187  00000+0  63412-4 0  9990
2 54361  98.3525 229.2436 0002265  90.8756 269.2696 14.47018465182394
DONGPO 09               
1 54685U 22167D   26130.55738778  .00007570  00000+0  22190-3 0  9993
2 54685  97.6879 299.9175 0001309 234.7793 125.3328 15.35506760189679
DONGPO 08               
1 54686U 22167E   26130.53836427  .00006564  00000+0  20899-3 0  9998
2 54686  97.6839 297.2514 0007005 305.0062  55.0521 15.32912552189552
2022-167F               
1 54687U 22167F   26130.21897999  .00088865  00000+0  46621-3 0  9990
2 54687  97.6176 313.8348 0003190 184.9018 175.2219 15.80513886190813
DONGPO 10               
1 54689U 22167H   26130.49925157  .00006656  00000+0  20691-3 0  9997
2 54689  97.6923 299.0736 0004012 237.9644 122.1209 15.33690705189585
JILIN-1 GAOFEN 03D48    
1 54695U 22167P   26130.51529740  .00006994  00000+0  21230-3 0  9990
2 54695  97.6856 298.4570 0005296 244.2241 115.8455 15.34422134189611
STAR VIBE               
1 55009U 23001A   26130.46892919  .00009051  00000+0  21720-3 0  9994
2 55009  97.3192 194.8068 0004467 238.1749 121.9064 15.41591534186414
BRO-8                   
1 55011U 23001C   26130.48736190  .00018433  00000+0  36863-3 0  9995
2 55011  97.3236 195.1915 0004745 244.6833 115.3925 15.46826009186377
CONNECTA T1.2           
1 55012U 23001D   26130.45103788  .00021455  00000+0  41076-3 0  9994
2 55012  97.3297 200.5474 0005757 216.0470 144.0393 15.48054227186702
