OBJECT_NAME,OBJECT_ID,EPOCH,MEAN_MOTION,ECCENTRICITY,INCLINATION,RA_OF_ASC_NODE,ARG_OF_PERICENTER,MEAN_ANOMALY,EPHEMERIS_TYPE,CLASSIFICATION_TYPE,NORAD_CAT_ID,ELEMENT_SET_NO,REV_AT_EPOCH,BSTAR,MEAN_MOTION_DOT,MEAN_MOTION_DDOT
DONGPO 02,2022-098J,2026-05-10T12:49:25.554720,15.68164557,.0002646,97.5469,258.6872,128.4173,231.7325,0,U,53452,999,20888,.4888E-3,.5455E-3,0
DONGPO 01,2022-098K,2026-05-10T13:04:49.063584,15.66610398,.0000872,97.5532,259.3012,149.4330,210.6981,0,U,53453,999,20885,.4872E-3,.51034E-3,0
STARLINK-4400,2022-099D,2026-05-10T07:07:53.597568,15.05653023,.00007946,97.5128,250.7271,16.9219,343.2034,0,U,53468,999,20524,-.57421483E-4,-.888E-5,0
STARLINK-4621,2022-105AE,2026-05-10T05:36:11.306880,15.05657674,.00031496,97.5130,10.6717,61.3017,298.8526,0,U,53676,999,20249,-.17401683E-3,-.257E-4,0
SHERPA-LTC2,2022-107BG,2026-05-10T02:20:24.577152,14.69157046,.03978969,53.2345,21.5215,119.6245,244.4984,0,U,53754,999,19694,.23070422E-3,.4427E-4,0
CENTISPACE-1 S3,2022-108A,2026-05-10T12:27:02.445120,14.61217603,.0008304,53.5324,211.0161,239.4045,120.6112,0,U,53757,999,19602,.81817E-4,.217E-5,0
CENTISPACE-1 S4,2022-108B,2026-05-10T12:29:31.274304,14.61890028,.00081,53.5299,208.7041,225.0740,134.9579,0,U,53758,999,19605,.10349E-3,.332E-5,0
BLUEWALKER-3,2022-111AL,2026-05-10T11:45:42.526656,15.37820008,.000732,53.2285,210.8807,64.2299,295.9461,0,U,53807,999,20440,.11053E-3,.3778E-4,0
YUNHAI-1 03,2022-115A,2026-05-10T13:04:24.913056,14.32691643,.0005328,98.5538,129.1712,145.2992,214.8540,0,U,53877,999,19012,.1096E-3,.254E-5,0
CENTISPACE-1 S5,2022-126A,2026-05-10T12:07:20.165664,14.62944841,.0012119,55.0004,3.7437,356.7972,3.2943,0,U,54020,999,19152,.14254E-3,.546E-5,0
CENTISPACE-1 S6,2022-126B,2026-05-10T11:30:55.334304,14.62235457,.0013951,55.0007,5.5370,355.6529,4.4342,0,U,54021,999,19148,.12432E-3,.443E-5,0
OTB-3-GAZELLE,2022-127A,2026-05-10T11:14:50.106336,14.42660610,.0012087,98.3940,122.7498,306.1220,53.8850,0,U,54023,999,18892,.43285E-4,.101E-5,0
ASO-S,2022-129A,2026-05-10T11:48:17.730432,14.52043063,.001371,98.2758,136.1118,203.5446,156.5123,0,U,54029,999,18995,.40252E-4,.118E-5,0
HJ-2E,2022-132A,2026-05-10T13:08:26.943648,15.21751827,.0022116,97.3812,135.6198,137.6984,222.5963,0,U,54035,999,19869,.21814E-3,.4907E-4,0
COSMOS 2561,2022-137A,2026-05-10T11:43:34.456800,15.50747657,.0010805,96.9224,190.9169,155.6342,204.5424,0,U,54109,999,20050,.15235E-3,.8697E-4,0
GONETS-M 23,2022-139A,2026-05-10T12:13:59.655936,12.42889093,.0020858,82.5101,11.7104,306.1733,53.7417,0,U,54150,999,16096,.35997E-4,.15E-6,0
GONETS-M 24,2022-139B,2026-05-10T11:35:17.765664,12.42889692,.0016256,82.5000,10.8128,317.7193,42.2632,0,U,54151,999,16096,.12276E-3,.27E-6,0
GONETS-M 25,2022-139C,2026-05-10T11:15:38.270016,12.42888960,.0020142,82.5078,11.4872,315.5090,44.4372,0,U,54152,999,16096,.10222E-4,.11E-6,0
SKIF-D,2022-139D,2026-05-09T06:49:32.850336,5.00439038,.00073738,89.9558,96.6795,214.5123,145.4786,0,U,54153,999,6216,0,.4E-6,0
MATS,2022-147A,2026-05-10T11:45:00.862848,15.05117789,.0011758,97.6826,132.2570,334.1171,25.9466,0,U,54227,999,19209,.21597E-3,.3015E-4,0
JILIN-1 GAOFEN 03D54,2022-155D,2026-05-10T08:40:36.336288,15.82308294,.0002312,97.6085,278.9953,169.0530,191.0789,0,U,54254,999,19429,.49696E-3,.103033E-2,0
EOS-6 (OCEANSAT-3),2022-158A,2026-05-10T13:05:51.626688,14.47018465,.0002265,98.3525,229.2436,90.8756,269.2696,0,U,54361,999,18239,.63412E-4,.187E-5,0
DONGPO 09,2022-167D,2026-05-10T13:22:38.304192,15.35506760,.0001309,97.6879,299.9175,234.7793,125.3328,0,U,54685,999,18967,.2219E-3,.757E-4,0
DONGPO 08,2022-167E,2026-05-10T12:55:14.672928,15.32912552,.0007005,97.6839,297.2514,305.0062,55.0521,0,U,54686,999,18955,.20899E-3,.6564E-4,0
2022-167F,2022-167F,2026-05-10T05:15:19.871136,15.80513886,.000319,97.6176,313.8348,184.9018,175.2219,0,U,54687,999,19081,.46621328E-3,.88865E-3,0
DONGPO 10,2022-167H,2026-05-10T11:58:55.335648,15.33690705,.0004012,97.6923,299.0736,237.9644,122.1209,0,U,54689,999,18958,.20691E-3,.6656E-4,0
JILIN-1 GAOFEN 03D48,2022-167P,2026-05-10T12:22:01.695360,15.34422134,.0005296,97.6856,298.4570,244.2241,115.8455,0,U,54695,999,18961,.2123E-3,.6994E-4,0
STAR VIBE,2023-001A,2026-05-10T11:15:15.482016,15.41591534,.0004467,97.3192,194.8068,238.1749,121.9064,0,U,55009,999,18641,.2172E-3,.9051E-4,0
BRO-8,2023-001C,2026-05-10T11:41:48.068160,15.46826009,.0004745,97.3236,195.1915,244.6833,115.3925,0,U,55011,999,18637,.36863E-3,.18433E-3,0
CONNECTA T1.2,2023-001D,2026-05-10T10:49:29.672832,15.48054227,.0005757,97.3297,200.5474,216.0470,144.0393,0,U,55012,999,18670,.41076E-3,.21455E-3,0
